[{"OBJECT_NAME":"STARLINK-36215","OBJECT_ID":"2025-298AB","EPOCH":"2026-03-09T22:31:42.809088","MEAN_MOTION":14.99137511,"ECCENTRICITY":0.00025723,"INCLINATION":70.0018,"RA_OF_ASC_NODE":13.862,"ARG_OF_PERICENTER":279.071,"MEAN_ANOMALY":81.0158,"EPHEMERIS_TYPE":0,"CLASSIFICATION_TYPE":"U","NORAD_CAT_ID":67100,"ELEMENT_SET_NO":999,"REV_AT_EPOCH":1325,"BSTAR":0.00094826761,"MEAN_MOTION_DOT":0.00011479,"MEAN_MOTION_DDOT":0},{"OBJECT_NAME":"CZ-4B DEB","OBJECT_ID":"1999-057CV","EPOCH":"2026-03-09T19:57:46.813248","MEAN_MOTION":14.85904834,"ECCENTRICITY":0.00580026,"INCLINATION":98.3828,"RA_OF_ASC_NODE":180.8293,"ARG_OF_PERICENTER":13.7764,"MEAN_ANOMALY":105.3903,"EPHEMERIS_TYPE":0,"CLASSIFICATION_TYPE":"U","NORAD_CAT_ID":26207,"ELEMENT_SET_NO":999,"REV_AT_EPOCH":36891,"BSTAR":0.0014962351,"MEAN_MOTION_DOT":0.00013405,"MEAN_MOTION_DDOT":0}]
